NORAD_CAT_ID,OBJECT_NAME,OBJECT_TYPE,EPOCH,MEAN_MOTION,ECCENTRICITY,INCLINATION,RA_OF_ASC_NODE,ARG_OF_PERICENTER,MEAN_ANOMALY,BSTAR,MEAN_MOTION_DOT,MEAN_MOTION_DDOT,TLE_LINE0,TLE_LINE1,TLE_LINE2,SEMIMAJOR_AXIS,PERIOD,APOGEE,PERIGEE,DECAYED
49160.0,STARLINK-3095,PAYLOAD,2022-05-14 14:00:01,14.98299259,0.0003305,70.0026,212.0041,286.629,6.924,0.0033809,0.00040449,0.0,0 STARLINK-3095,1 49160U 21082AG  22134.58334491  .00040449  00000-0  33809-2 0  9998,2 49160  70.0026 212.0041 0003305 286.6290   6.9240 14.98299259  1304,6950.288000000001,96.109,574.45,569.856,0.0
49160.0,STARLINK-3095,PAYLOAD,2022-05-14 22:00:00,14.98333609,0.0003273999999999,70.0022,211.1637,283.7329,7.291,-0.0014325,-0.00017146,0.0,0 STARLINK-3095,1 49160U 21082AG  22134.91667824 -.00017146  00000-0 -14325-2 0  9996,2 49160  70.0022 211.1637 0003274 283.7329   7.2910 14.98333609  1303,6950.182,96.107,574.322,569.771,0.0
49160.0,STARLINK-3095,PAYLOAD,2022-05-15 14:00:01,14.98335624,0.0003341,70.0023,209.483,285.7659,0.2926,-0.00011047,-1.411e-05,0.0,0 STARLINK-3095,1 49160U 21082AG  22135.58335648 -.00001411  00000-0 -11047-3 0  9993,2 49160  70.0023 209.4830 0003341 285.7659   0.2926 14.98335624 38233,6950.175,96.107,574.363,569.7180000000002,0.0
49160.0,STARLINK-3095,PAYLOAD,2022-05-15 22:00:00,14.983282399999998,0.0003264,70.0019,208.6425,282.9712,0.5253,-0.0008607,-0.00010347,0.0,0 STARLINK-3095,1 49160U 21082AG  22135.91667824 -.00010347  00000-0 -86070-3 0  9990,2 49160  70.0019 208.6425 0003264 282.9712   0.5253 14.98328240  1302,6950.198,96.107,574.332,569.795,0.0
49160.0,STARLINK-3095,PAYLOAD,2022-05-16 14:00:01,14.98326881,0.0003305,70.0019,206.9619,285.4866,352.9708,-0.00063492,-7.659999999999999e-05,0.0,0 STARLINK-3095,1 49160U 21082AG  22136.58334491 -.00007660  00000-0 -63492-3 0  9992,2 49160  70.0019 206.9619 0003305 285.4866 352.9708 14.98326881  1300,6950.203,96.107,574.365,569.77,0.0
49160.0,STARLINK-3095,PAYLOAD,2022-05-16 22:00:00,14.98315336,0.0003232,70.0015,206.1214,282.6704,353.271,-0.00032502,-3.967e-05,0.0,0 STARLINK-3095,1 49160U 21082AG  22136.91667824 -.00003967  00000-0 -32502-3 0  9992,2 49160  70.0015 206.1214 0003232 282.6704 353.2710 14.98315336 38432,6950.238,96.108,574.35,569.857,0.0
49160.0,STARLINK-3095,PAYLOAD,2022-05-17 12:00:00,14.98318302,0.0003327,70.0014,204.6509,284.4533,257.0698,0.0019555,0.00023311,0.0,0 STARLINK-3095,1 49160U 21082AG  22137.50001157  .00023311  00000-0  19555-2 0  9994,2 49160  70.0014 204.6509 0003327 284.4533 257.0698 14.98318302 38528,6950.229,96.108,574.406,569.7819999999998,0.0
49160.0,STARLINK-3095,PAYLOAD,2022-05-17 14:00:01,14.98312054,0.0003333,70.0014,204.4407,285.6337,345.3230000000001,0.0039059,0.00046803,0.0,0 STARLINK-3095,1 49160U 21082AG  22137.58335648  .00046803  00000-0  39059-2 0  9999,2 49160  70.0014 204.4407 0003333 285.6337 345.3230 14.98312054  1302,6950.248000000001,96.108,574.43,569.797,0.0
49160.0,STARLINK-3095,PAYLOAD,2022-05-17 22:00:01,14.98349537,0.0003359,70.0012,203.6003,282.0591,346.3876,-0.0033234,-0.00039546,0.0,0 STARLINK-3095,1 49160U 21082AG  22137.91668981 -.00039546  00000-0 -33234-2 0  9992,2 49160  70.0012 203.6003 0003359 282.0591 346.3876 14.98349537  1307,6950.132,96.106,574.332,569.663,0.0
49160.0,STARLINK-3095,PAYLOAD,2022-05-18 14:00:01,14.98318727,0.000346,70.0011,201.9198,285.5793,337.7874,0.0029934,0.00035797,0.0,0 STARLINK-3095,1 49160U 21082AG  22138.58334491  .00035797  00000-0  29934-2 0  9996,2 49160  70.0011 201.9198 0003460 285.5793 337.7874 14.98318727 38687,6950.228,96.108,574.498,569.688,0.0
49160.0,STARLINK-3095,PAYLOAD,2022-05-18 22:00:00,14.98322371,0.0003339,70.0008,201.0794,282.4274,338.4337,-0.00092074,-0.0001106,0.0,0 STARLINK-3095,1 49160U 21082AG  22138.91667824 -.00011060  00000-0 -92074-3 0  9997,2 49160  70.0008 201.0794 0003339 282.4274 338.4337 14.98322371  1302,6950.215999999999,96.107,574.4019999999998,569.761,0.0
49160.0,STARLINK-3095,PAYLOAD,2022-05-19 06:00:00,14.98344698,0.0003347,70.0011,200.2391,280.3552,337.9634,-0.0020775,-0.00024804,0.0,0 STARLINK-3095,1 49160U 21082AG  22139.25001157 -.00024804  00000-0 -20775-2 0  9994,2 49160  70.0011 200.2391 0003347 280.3552 337.9634 14.98344698 38787,6950.147,96.106,574.339,569.686,0.0
49160.0,STARLINK-3095,PAYLOAD,2022-05-19 14:00:01,14.98308584,0.0003394,70.0008,199.3987,286.5838,329.2894,0.0039735,0.00047616,0.0,0 STARLINK-3095,1 49160U 21082AG  22139.58335648  .00047616  00000-0  39735-2 0  9995,2 49160  70.0008 199.3987 0003394 286.5838 329.2894 14.98308584  1303,6950.259,96.108,574.4830000000002,569.765,0.0
49160.0,STARLINK-3095,PAYLOAD,2022-05-19 22:00:00,14.98326897,0.0003485,70.0001,198.5698,279.0257,334.245,0.00042659,5e-05,0.0,0 STARLINK-3095,1 49160U 21082AG  22139.91667824  .00005000  00000-0  42659-3 0  9997,2 49160  70.0001 198.5698 0003485 279.0257 334.2450 14.98326897  1300,6950.2019999999975,96.107,574.49,569.645,0.0
49160.0,STARLINK-3095,PAYLOAD,2022-05-20 06:00:00,14.98380156,0.0003308,70.0009,197.7179,280.6803,330.0973,-0.0055803,-0.0006614,0.0,0 STARLINK-3095,1 49160U 21082AG  22140.25001157 -.00066140  00000-0 -55803-2 0  9995,2 49160  70.0009 197.7179 0003308 280.6803 330.0973 14.98380156 38933,6950.038000000001,96.104,574.202,569.604,0.0
49160.0,STARLINK-3095,PAYLOAD,2022-05-20 14:00:01,14.98307232,0.0003318,70.0008,196.8774,286.9389,321.3587,0.0039335,0.00047131,0.0,0 STARLINK-3095,1 49160U 21082AG  22140.58334491  .00047131  00000-0  39335-2 0  9990,2 49160  70.0008 196.8774 0003318 286.9389 321.3587 14.98307232  1301,6950.263000000001,96.108,574.434,569.822,0.0
49160.0,STARLINK-3095,PAYLOAD,2022-05-20 22:00:00,14.9831773,0.000323,70.0008,196.0372,282.1974,323.5823,0.0019771,0.0002357,0.0,0 STARLINK-3095,1 49160U 21082AG  22140.91667824  .00023570  00000-0  19771-2 0  9999,2 49160  70.0008 196.0372 0003230 282.1974 323.5823 14.98317730 39030,6950.231,96.108,574.341,569.851,0.0
49160.0,STARLINK-3095,PAYLOAD,2022-05-21 06:00:00,14.98361146,0.0003215,70.001,195.1965,280.5585,322.6925,-0.0055239,-0.00065446,0.0,0 STARLINK-3095,1 49160U 21082AG  22141.25001157 -.00065446  00000-0 -55239-2 0  9997,2 49160  70.0010 195.1965 0003215 280.5585 322.6925 14.98361146  1306,6950.097,96.105,574.196,569.727,0.0
49160.0,STARLINK-3095,PAYLOAD,2022-05-21 14:00:01,14.98300032,0.0003275,70.001,194.356,286.46,314.3495,0.003881,0.00046487,0.0,0 STARLINK-3095,1 49160U 21082AG  22141.58335648  .00046487  00000-0  38810-2 0  9996,2 49160  70.0010 194.3560 0003275 286.4600 314.3495 14.98300032 39136,6950.286,96.109,574.427,569.874,0.0
49160.0,STARLINK-3095,PAYLOAD,2022-05-21 22:00:00,14.98308665,0.0003231,70.0009,193.5156,281.5339,316.6921,0.0028987,0.00034647,0.0,0 STARLINK-3095,1 49160U 21082AG  22141.91667824  .00034647  00000-0  28987-2 0  9996,2 49160  70.0009 193.5156 0003231 281.5339 316.6921 14.98308665  1300,6950.259,96.108,574.369,569.878,0.0
49160.0,STARLINK-3095,PAYLOAD,2022-05-22 06:00:00,14.98358366,0.000325,70.0013,192.6752,280.0403,315.6465,-0.0027672,-0.00032981,0.0,0 STARLINK-3095,1 49160U 21082AG  22142.25001157 -.00032981  00000-0 -27672-2 0  9996,2 49160  70.0013 192.6752 0003250 280.0403 315.6465 14.98358366 39232,6950.105,96.105,574.229,569.711,0.0
49160.0,STARLINK-3095,PAYLOAD,2022-05-22 14:00:01,14.98320301,0.0003306,70.0011,191.8347,285.7874,307.4046,0.00052255,6.146e-05,0.0,0 STARLINK-3095,1 49160U 21082AG  22142.58334491  .00006146  00000-0  52255-3 0  9990,2 49160  70.0011 191.8347 0003306 285.7874 307.4046 14.98320301  1306,6950.223000000001,96.108,574.386,569.79,0.0
49160.0,STARLINK-3095,PAYLOAD,2022-05-22 22:00:01,14.98298829,0.0003224,70.0012,190.9942,281.0939,309.6491,0.0035506,0.00042496,0.0,0 STARLINK-3095,1 49160U 21082AG  22142.91668981  .00042496  00000-0  35506-2 0  9998,2 49160  70.0012 190.9942 0003224 281.0939 309.6491 14.98298829  1305,6950.2890000000025,96.109,574.395,569.914,0.0
49160.0,STARLINK-3095,PAYLOAD,2022-05-23 06:00:00,14.98323725,0.0003235,70.0009,190.1618,282.7035,305.4321,-0.0016522,-0.00019749,0.0,0 STARLINK-3095,1 49160U 21082AG  22143.25001157 -.00019749  00000-0 -16522-2 0  9996,2 49160  70.0009 190.1618 0003235 282.7035 305.4321 14.98323725 39389,6950.212,96.107,574.326,569.8290000000002,0.0
49160.0,STARLINK-3095,PAYLOAD,2022-05-23 14:00:01,14.98313362,0.0003333,70.0013,189.3135,285.6234,300.0046,0.0035428,0.00042418,0.0,0 STARLINK-3095,1 49160U 21082AG  22143.58334491  .00042418  00000-0  35428-2 0  9995,2 49160  70.0013 189.3135 0003333 285.6234 300.0046 14.98313362 39437,6950.244000000002,96.108,574.4259999999998,569.793,0.0
49160.0,STARLINK-3095,PAYLOAD,2022-05-23 22:00:01,14.98311425,0.0003283,70.0015,188.473,280.7294,302.4522,0.0038897,0.00046606,0.0,0 STARLINK-3095,1 49160U 21082AG  22143.91668981  .00046606  00000-0  38897-2 0  9992,2 49160  70.0015 188.4730 0003283 280.7294 302.4522 14.98311425  1304,6950.25,96.108,574.3969999999998,569.8340000000002,0.0
49160.0,STARLINK-3095,PAYLOAD,2022-05-24 06:00:02,14.98368764,0.0003311,70.0017,187.6327,280.4654,300.1889,-0.0036604,-0.00043543,0.0,0 STARLINK-3095,1 49160U 21082AG  22144.25002315 -.00043543  00000-0 -36604-2 0  9996,2 49160  70.0017 187.6327 0003311 280.4654 300.1889 14.98368764 39533,6950.073,96.105,574.239,569.637,0.0
49160.0,STARLINK-3095,PAYLOAD,2022-05-24 13:01:47,14.98332764,0.0002869,70.0005,186.8958,276.8582,83.225,5.3814e-05,5.49e-06,0.0,0 STARLINK-3095,1 49160U 21082AG  22144.54291434  .00000549  00000-0  53814-4 0  9991,2 49160  70.0005 186.8958 0002869 276.8582  83.2250 14.98332764 39562,6950.184,96.107,574.043,570.055,0.0
49160.0,STARLINK-3095,PAYLOAD,2022-05-24 22:00:00,14.98292741,0.0003166,70.0014,185.952,281.2497,294.343,0.0041406,0.00049616,0.0,0 STARLINK-3095,1 49160U 21082AG  22144.91667824  .00049616  00000-0  41406-2 0  9992,2 49160  70.0014 185.9520 0003166 281.2497 294.3430 14.98292741  1309,6950.308000000001,96.109,574.374,569.9730000000002,0.0
